CCSDS_OMM_VERS,COMMENT,CREATION_DATE,ORIGINATOR,OBJECT_NAME,OBJECT_ID,CENTER_NAME,REF_FRAME,TIME_SYSTEM,MEAN_ELEMENT_THEORY,EPOCH,MEAN_MOTION,ECCENTRICITY,INCLINATION,RA_OF_ASC_NODE,ARG_OF_PERICENTER,MEAN_ANOMALY,EPHEMERIS_TYPE,CLASSIFICATION_TYPE,NORAD_CAT_ID,ELEMENT_SET_NO,REV_AT_EPOCH,BSTAR,MEAN_MOTION_DOT,MEAN_MOTION_DDOT,SEMIMAJOR_AXIS,PERIOD,APOAPSIS,PERIAPSIS,OBJECT_TYPE,RCS_SIZE,COUNTRY_CODE,LAUNCH_DATE,SITE,DECAY_DATE,FILE,GP_ID,TLE_LINE0,TLE_LINE1,TLE_LINE2,NORAD_KEY,JCAT,DeepCat,Satcat,Piece,Active,Type,Name,LDate,Parent,Owner,State,SDate,ExpandedStatus,DDate,ODate,Period,Perigee,PF,Apogee,AF,Inc,IF,OpOrbit,SATCAT_KEY
3.0,GENERATED VIA SPACE-TRACK.ORG API,2026-05-06T14:46:56,18 SPCS,XM-8,2021-049A,EARTH,TEME,UTC,SGP4,2026-05-06T11:01:29.765856,1.00271232,0.0004669,0.0342,43.5615,356.7549,264.2446,0,U,48838,999,1816,0.00000000000000,-0.00000198,0.0000000000000,42164.887,1436.105,35806.439,35767.065,PAYLOAD,LARGE,US,2021-06-06,AFETR,,5177283,322300409,0 XM-8,1 48838U 21049A   26126.45937229 -.00000198  00000-0  00000+0 0  9993,2 48838   0.0342  43.5615 0004669 356.7549 264.2446  1.00271232 18162,48838,S48838,-,48838,2021-049A,A,P,SXM-8,2021 Jun  6,S48839,SIRX,US,2021 Jun  6 0457,In Earth orbit,-,2026 May  4 ,    1436.034 ,   35765, ,   35804, ,  0.03 , ,GEO/S,48838
3.0,GENERATED VIA SPACE-TRACK.ORG API,2026-05-06T10:08:52,18 SPCS,TURKSAT 6A,2024-127A,EARTH,TEME,UTC,SGP4,2026-05-06T03:04:18.006816,1.00271387,6.318e-05,0.035,189.4874,223.5964,258.9781,0,U,60233,999,659,0.00000000000000,0.00000154,0.0000000000000,42164.844,1436.103,35789.372,35784.045,PAYLOAD,LARGE,TURK,2024-07-08,AFETR,,5176958,322284001,0 TURKSAT 6A,1 60233U 24127A   26126.12798619  .00000154  00000-0  00000-0 0  9990,2 60233   0.0350 189.4874 0000632 223.5964 258.9781  1.00271387  6596,60233,S60233,-,60233,2024-127A,A,P,Turksat 6A,2024 Jul  8,S60234,TURKS,TR,2024 Jul  9 0005:31,In Earth orbit,-,2026 May  2 ,    1436.053 ,   35781, ,   35789, ,  0.04 , ,GEO/S,60233
3.0,GENERATED VIA SPACE-TRACK.ORG API,2026-05-06T14:46:56,18 SPCS,CMS 03,2025-249B,EARTH,TEME,UTC,SGP4,2026-05-06T13:40:46.735968,1.00271073,0.0002733,0.035,257.5932,135.1605,110.8565,0,U,66311,999,193,0.00000000000000,-0.00000069,0.0000000000000,42164.932,1436.107,35798.32,35775.273,PAYLOAD,,IND,2025-11-02,SRI,,5177323,322293214,0 CMS 03,1 66311U 25249B   26126.56998537 -.00000069  00000-0  00000+0 0  9993,2 66311   0.0350 257.5932 0002733 135.1605 110.8565  1.00271073  1936,66311,S66311,-,66311,2025-249B,A,P,CMS-03,2025 Nov  2,S66310,ISRO,IN,2025 Nov  2 1212,In Earth orbit,-,2026 May  5 ,    1436.107 ,   35775, ,   35798, ,  0.04 , ,GEO/S,66311
3.0,GENERATED VIA SPACE-TRACK.ORG API,2026-05-06T14:46:56,18 SPCS,LAOSAT 1,2015-067A,EARTH,TEME,UTC,SGP4,2026-05-06T11:56:17.113920,1.0027005,0.0002067,0.0358,91.0115,284.5809,156.3474,0,U,41034,999,3844,0.00000000000000,-0.00000335,0.0000000000000,42165.218,1436.122,35795.799,35778.368,PAYLOAD,LARGE,LAOS,2015-11-20,XSC,,5177165,322297415,0 LAOSAT 1,1 41034U 15067A   26126.49742030 -.00000335  00000-0  00000+0 0  9998,2 41034   0.0358  91.0115 0002067 284.5809 156.3474  1.00270050 38442,41034,S41034,-,41034,2015-067A,A,P,LaoSat 1,2015 Nov 20,S41035,LANAST/APMT,LA,2015 Nov 20 1632?,In Earth orbit,-,2026 May  5 ,    1436.113 ,   35777, ,   35795, ,  0.01 , ,GEO/S,41034
3.0,GENERATED VIA SPACE-TRACK.ORG API,2026-05-06T14:46:56,18 SPCS,NIMIQ 5,2009-050A,EARTH,TEME,UTC,SGP4,2026-05-06T11:04:59.431008,1.00271149,0.0003251,0.0358,90.7406,328.8294,258.3079,0,U,35873,999,6092,0.00000000000000,-0.00000249,0.0000000000000,42164.91,1436.106,35800.483,35773.067,PAYLOAD,LARGE,CA,2009-09-17,TTMTR,,5177089,322295877,0 NIMIQ 5,1 35873U 09050A   26126.46179897 -.00000249  00000-0  00000+0 0  9993,2 35873   0.0358  90.7406 0003251 328.8294 258.3079  1.00271149 60923,35873,S35873,-,35873,2009-050A,A,P,Nimiq 5,2009 Sep 17,S35874,TCANL,CA,2009 Sep 18 0434,In Earth orbit,-,2026 May  5 ,    1436.099 ,   35773, ,   35800, ,  0.01 , ,GEO/S,35873
3.0,GENERATED VIA SPACE-TRACK.ORG API,2026-05-06T14:46:56,18 SPCS,TJS-9,2021-135A,EARTH,TEME,UTC,SGP4,2026-05-06T12:04:53.687424,1.00268048,0.0004805,0.0361,27.2183,53.6337,101.9037,0,U,50574,999,1601,0.00000000000000,-0.00000292,0.0000000000000,42165.78,1436.15,35807.905,35767.384,PAYLOAD,LARGE,PRC,2021-12-29,XSC,,5177299,322301555,0 TJS-9,1 50574U 21135A   26126.50339916 -.00000292  00000-0  00000+0 0  9999,2 50574   0.0361  27.2183 0004805  53.6337 101.9037  1.00268048 16018,50574,S50574,-,50574,2021-135A,A,P,Tongxin Jishu Shiyan 9,2021 Dec 29,S50575,CASC,CN,2021 Dec 29 1708?,In Earth orbit,-,2026 May  5 ,    1436.144 ,   35767, ,   35807, ,  0.03 , ,GEO/S,50574
3.0,GENERATED VIA SPACE-TRACK.ORG API,2026-05-06T14:46:56,18 SPCS,MEV-2,2020-056B,EARTH,TEME,UTC,SGP4,2026-05-06T09:53:00.401280,1.00262247,0.0001167,0.0364,70.4054,20.4371,280.6287,0,U,46113,999,8013,0.00000000000000,-0.00000005,0.0000000000000,42167.406,1436.234,35794.192,35784.35,PAYLOAD,LARGE,US,2020-08-15,FRGUI,,5177246,322299439,0 MEV-2,1 46113U 20056B   26126.41181020 -.00000005  00000-0  00000+0 0  9997,2 46113   0.0364  70.4054 0001167  20.4371 280.6287  1.00262247 80131,46113,S46113,-,46113,2020-056B,P,P,MEV-2,2020 Aug 15,S46115,SPLOG,US,2020 Aug 15 2238,Docked with S28358 INTELSAT 10-02,-,-,-,-,-,-,-,-,-,-,46113
3.0,GENERATED VIA SPACE-TRACK.ORG API,2026-05-06T15:06:46,18 SPCS,INTELSAT 1002,2004-022A,EARTH,TEME,UTC,SGP4,2026-05-06T09:53:00.401280,1.00262247,0.0001167,0.0364,70.4054,20.4371,280.6287,0,U,28358,999,8013,0.00000000000000,-0.00000005,0.0000000000000,42167.406,1436.234,35794.192,35784.35,PAYLOAD,LARGE,ITSO,2004-06-16,TTMTR,,5177730,322310874,0 INTELSAT 1002,1 28358U 04022A   26126.41181020 -.00000005  00000-0  00000+0 0  9993,2 28358   0.0364  70.4054 0001167  20.4371 280.6287  1.00262247 80132,28358,S28358,-,28358,2004-022A,A,P      O,INTELSAT 10-02,2004 Jun 16,S28360,SESINTU,US,2004 Jun 17 0737,In Earth orbit,-,2026 May  4 ,    1436.119 ,   35781, ,   35792, ,  0.04 , ,GEO/S,28358
3.0,GENERATED VIA SPACE-TRACK.ORG API,2026-05-06T14:46:56,18 SPCS,HIMAWARI 9,2016-064A,EARTH,TEME,UTC,SGP4,2026-05-06T12:06:57.096864,1.0027062,0.0001408,0.0376,127.8467,306.7665,112.2673,0,U,41836,999,3479,0.00000000000000,-0.00000267,0.0000000000000,42165.059,1436.114,35792.86,35780.987,PAYLOAD,LARGE,JPN,2016-11-02,TNSTA,,5177178,322298075,0 HIMAWARI 9,1 41836U 16064A   26126.50482751 -.00000267  00000-0  00000+0 0  9993,2 41836   0.0376 127.8467 0001408 306.7665 112.2673  1.00270620 34794,41836,S41836,-,41836,2016-064A,A,P,Himawari-9,2016 Nov  2,S41837,JMA,J,2016 Nov  2 0647,In Earth orbit,-,2026 May  4 ,    1436.087 ,   35780, ,   35792, ,  0.03 , ,GEO/S,41836
3.0,GENERATED VIA SPACE-TRACK.ORG API,2026-05-06T14:46:56,18 SPCS,TURKMENALEM 52E/MONACOSA,2015-023A,EARTH,TEME,UTC,SGP4,2026-05-06T09:57:51.062112,1.00271835,0.0003226,0.0379,83.2752,324.0931,18.384,0,U,40617,999,4042,0.00000000000000,0.00000112,0.0000000000000,42164.718,1436.096,35800.185,35772.981,PAYLOAD,LARGE,TMMC,2015-04-27,AFETR,,5177161,322297357,0 TURKMENALEM 52E/MONACOSA,1 40617U 15023A   26126.41517433  .00000112  00000-0  00000+0 0  9997,2 40617   0.0379  83.2752 0003226 324.0931  18.3840  1.00271835 40422,40617,S40617,-,40617,2015-023A,A,P,TurkmenAlem52E/MonacoSAT,2015 Apr 27,S40618,SSIM/TMTEL,MC,2015 Apr 27 2335,In Earth orbit,-,2026 May  5 ,    1436.103 ,   35773, ,   35800, ,  0.03 , ,GEO/S,40617
3.0,GENERATED VIA SPACE-TRACK.ORG API,2026-05-06T14:46:56,18 SPCS,GOES 18,2022-021A,EARTH,TEME,UTC,SGP4,2026-05-06T12:27:38.651904,1.00271289,6.6e-05,0.0383,82.4404,16.9035,174.9541,0,U,51850,999,617,0.00000000000000,0.00000104,0.0000000000000,42164.871,1436.104,35789.519,35783.953,PAYLOAD,LARGE,US,2022-03-01,AFETR,,5177309,322301682,0 GOES 18,1 51850U 22021A   26126.51919736  .00000104  00000-0  00000+0 0  9998,2 51850   0.0383  82.4404 0000660  16.9035 174.9541  1.00271289  6178,51850,S51850,-,51850,2022-021A,A,P,GOES 18,2022 Mar  1,S51851,NOAA,US,2022 Mar  2 0110:56,In Earth orbit,-,2026 May  5 ,    1436.108 ,   35784, ,   35789, ,  0.05 , ,GEO/S,51850
3.0,GENERATED VIA SPACE-TRACK.ORG API,2026-05-06T14:46:56,18 SPCS,CHINASAT 2D,2019-001A,EARTH,TEME,UTC,SGP4,2026-05-06T12:10:38.692128,1.00271001,8.02e-05,0.0392,27.5413,350.4471,159.0614,0,U,43920,999,5366,0.00000000000000,-0.00000329,0.0000000000000,42164.952,1436.108,35790.198,35783.435,PAYLOAD,LARGE,PRC,2019-01-10,XSC,,5177209,322298982,0 CHINASAT 2D,1 43920U 19001A   26126.50739227 -.00000329  00000-0  00000+0 0  9995,2 43920   0.0392  27.5413 0000802 350.4471 159.0614  1.00271001 53668,43920,S43920,-,43920,2019-001A,A,P,Zhongxing 2D,2019 Jan 10,S43921,JHB,CN,2019 Jan 10 1736,In Earth orbit,-,2026 May  5 ,    1436.101 ,   35783, ,   35790, ,  0.04 , ,GEO/S,43920
3.0,GENERATED VIA SPACE-TRACK.ORG API,2026-05-06T10:08:52,18 SPCS,CMS-02,2022-067A,EARTH,TEME,UTC,SGP4,2026-05-06T03:16:01.881696,1.00269914,0.00019196,0.0399,102.0445,264.6945,349.2602,0,U,52903,999,1418,0.00000000000000,-0.00000156,0.0000000000000,42165.257,1436.124,35795.215,35779.028,PAYLOAD,LARGE,IND,2022-06-22,FRGUI,,5176958,322278749,0 CMS-02,1 52903U 22067A   26126.13613289 -.00000156  00000-0  00000-0 0  9999,2 52903   0.0399 102.0445 0001920 264.6945 349.2602  1.00269914 14188,52903,S52903,-,52903,2022-067A,A,P,GSAT-24,2022 Jun 22,S52906,NSIL,IN,2022 Jun 22 2230:04,In Earth orbit,-,2026 May  5 ,    1436.121 ,   35778, ,   35795, ,  0.04 , ,GEO/S,52903
